[{"OBJECT_NAME":"STARLINK-1954","OBJECT_ID":"2021-009H","EPOCH":"2026-03-09T23:20:25.352160","MEAN_MOTION":15.30849174,"ECCENTRICITY":0.00046184,"INCLINATION":53.0574,"RA_OF_ASC_NODE":8.8654,"ARG_OF_PERICENTER":103.3293,"MEAN_ANOMALY":256.8222,"EPHEMERIS_TYPE":0,"CLASSIFICATION_TYPE":"U","NORAD_CAT_ID":47555,"ELEMENT_SET_NO":999,"REV_AT_EPOCH":28100,"BSTAR":0.0022371791,"MEAN_MOTION_DOT":0.00067883,"MEAN_MOTION_DDOT":0},{"OBJECT_NAME":"STARLINK-35480","OBJECT_ID":"2025-245J","EPOCH":"2026-03-09T19:56:40.297344","MEAN_MOTION":15.30202658,"ECCENTRICITY":0.00010085,"INCLINATION":53.1566,"RA_OF_ASC_NODE":283.5602,"ARG_OF_PERICENTER":139.7045,"MEAN_ANOMALY":220.4031,"EPHEMERIS_TYPE":0,"CLASSIFICATION_TYPE":"U","NORAD_CAT_ID":66242,"ELEMENT_SET_NO":999,"REV_AT_EPOCH":2127,"BSTAR":0.00080686258,"MEAN_MOTION_DOT":0.00023616,"MEAN_MOTION_DDOT":0}]
